NORAD_CAT_ID,OBJECT_NAME,OBJECT_TYPE,EPOCH,MEAN_MOTION,ECCENTRICITY,INCLINATION,RA_OF_ASC_NODE,ARG_OF_PERICENTER,MEAN_ANOMALY,BSTAR,MEAN_MOTION_DOT,MEAN_MOTION_DDOT,TLE_LINE0,TLE_LINE1,TLE_LINE2,SEMIMAJOR_AXIS,PERIOD,APOGEE,PERIGEE,DECAYED
52455.0,STARLINK-3890,PAYLOAD,2022-08-01 22:00:00,15.08818561,0.0001805,53.2164,215.8385,69.4813,332.0389,0.0027132,0.00043132,0.0,0 STARLINK-3890,1 52455U 22049E   22213.91667824  .00043132  00000-0  27132-2 0  9991,2 52455  53.2164 215.8385 0001805  69.4813 332.0389 15.08818561  1306,6917.946,95.439,541.06,538.562,0.0
52455.0,STARLINK-3890,PAYLOAD,2022-08-02 14:00:01,15.08852806,0.0001924,53.2161,212.8472,62.9645,1.7372,-0.0013737,-0.00022092,0.0,0 STARLINK-3890,1 52455U 22049E   22214.58334491 -.00022092  00000-0 -13737-2 0  9996,2 52455  53.2161 212.8472 0001924  62.9645   1.7372 15.08852806 13732,6917.840999999999,95.437,541.0369999999998,538.375,0.0
52455.0,STARLINK-3890,PAYLOAD,2022-08-03 06:00:00,15.08850936,0.0001984,53.2162,209.8548,66.0632,21.8389,-0.0013784,-0.00022165,0.0,0 STARLINK-3890,1 52455U 22049E   22215.25001157 -.00022165  00000-0 -13784-2 0  9994,2 52455  53.2162 209.8548 0001984  66.0632  21.8389 15.08850936 13834,6917.847,95.437,541.0840000000002,538.339,0.0
52455.0,STARLINK-3890,PAYLOAD,2022-08-03 14:00:01,15.08857519,0.0001965,53.216,208.3581,64.2196,35.2768,-0.0015717,-0.00025227,0.0,0 STARLINK-3890,1 52455U 22049E   22215.58334491 -.00025227  00000-0 -15717-2 0  9990,2 52455  53.2160 208.3581 0001965  64.2196  35.2768 15.08857519  1300,6917.8269999999975,95.436,541.0509999999998,538.332,0.0
52455.0,STARLINK-3890,PAYLOAD,2022-08-03 22:00:01,15.08831956,0.0001926,53.2161,206.8603,71.3298,39.8391,0.00212,0.00033606,0.0,0 STARLINK-3890,1 52455U 22049E   22215.91668981  .00033606  00000-0  21200-2 0  9993,2 52455  53.2161 206.8603 0001926  71.3298  39.8391 15.08831956 13939,6917.905,95.438,541.102,538.438,0.0
52455.0,STARLINK-3890,PAYLOAD,2022-08-04 14:00:01,15.08864139,0.000202,53.2159,203.86900000000003,64.7139,69.5907,-0.0017603999999999,-0.00028215,0.0,0 STARLINK-3890,1 52455U 22049E   22216.58334491 -.00028215  00000-0 -17604-2 0  9998,2 52455  53.2159 203.8690 0002020  64.7139  69.5907 15.08864139 14039,6917.807,95.436,541.069,538.274,0.0
52455.0,STARLINK-3890,PAYLOAD,2022-08-04 22:00:00,15.08850582,0.0001973,53.2161,202.3713,70.8679,75.0486,-0.00023217,-3.982e-05,0.0,0 STARLINK-3890,1 52455U 22049E   22216.91667824 -.00003982  00000-0 -23217-3 0  9996,2 52455  53.2161 202.3713 0001973  70.8679  75.0486 15.08850582  1302,6917.848000000001,95.437,541.078,538.3480000000002,0.0
52455.0,STARLINK-3890,PAYLOAD,2022-08-05 14:00:01,15.08846942,0.0001993,53.216,199.3798,63.9994,105.1687,-0.0018924,-0.00030286,0.0,0 STARLINK-3890,1 52455U 22049E   22217.58335648 -.00030286  00000-0 -18924-2 0  9991,2 52455  53.2160 199.3798 0001993  63.9994 105.1687 15.08846942  1307,6917.859,95.437,541.1030000000002,538.345,0.0
52455.0,STARLINK-3890,PAYLOAD,2022-08-05 22:00:00,15.08825943,0.0001981,53.2163,197.8823,70.2407,110.4543,0.0016323,0.00025776,0.0,0 STARLINK-3890,1 52455U 22049E   22217.91667824  .00025776  00000-0  16323-2 0  9999,2 52455  53.2163 197.8823 0001981  70.2407 110.4543 15.08825943  1307,6917.9230000000025,95.438,541.159,538.418,0.0
52455.0,STARLINK-3890,PAYLOAD,2022-08-06 06:00:00,15.088352800000004,0.0002117,53.2162,196.3878,64.4385,127.8487,-4.1114e-05,-9.42e-06,0.0,0 STARLINK-3890,1 52455U 22049E   22218.25001157 -.00000942  00000-0 -41114-4 0  9996,2 52455  53.2162 196.3878 0002117  64.4385 127.8487 15.08835280 14298,6917.895,95.438,541.224,538.295,0.0
52455.0,STARLINK-3890,PAYLOAD,2022-08-06 14:00:01,15.08857936,0.0002059,53.2162,194.8907,64.9751,138.89600000000002,-0.0020786,-0.00033234,0.0,0 STARLINK-3890,1 52455U 22049E   22218.58334491 -.00033234  00000-0 -20786-2 0  9992,2 52455  53.2162 194.8907 0002059  64.9751 138.8960 15.08857936  1309,6917.826,95.436,541.115,538.266,0.0
52455.0,STARLINK-3890,PAYLOAD,2022-08-06 22:00:00,15.08842125,0.0002031,53.2165,193.3933,70.9218,144.5503,0.00095089,0.00014879,0.0,0 STARLINK-3890,1 52455U 22049E   22218.91667824  .00014879  00000-0  95089-3 0  9999,2 52455  53.2165 193.3933 0002031  70.9218 144.5503 15.08842125  1301,6917.874,95.437,541.144,538.3340000000002,0.0
52455.0,STARLINK-3890,PAYLOAD,2022-08-07 14:00:01,15.08841269,0.0001985,53.2163,190.4014,65.1547,173.5024,-0.002186,-0.00034912,0.0,0 STARLINK-3890,1 52455U 22049E   22219.58334491 -.00034912  00000-0 -21860-2 0  9991,2 52455  53.2163 190.4014 0001985  65.1547 173.5024 15.08841269  1303,6917.877,95.437,541.115,538.368,0.0
52455.0,STARLINK-3890,PAYLOAD,2022-08-07 22:00:00,15.08825761,0.0001966999999999,53.2166,188.9043,71.3493,178.8882,0.0012255999999999,0.00019264,0.0,0 STARLINK-3890,1 52455U 22049E   22219.91667824  .00019264  00000-0  12256-2 0  9997,2 52455  53.2166 188.9043 0001967  71.3493 178.8882 15.08825761  1308,6917.924,95.438,541.15,538.428,0.0
52455.0,STARLINK-3890,PAYLOAD,2022-08-08 04:50:40,15.08834642,0.0002014,53.218,187.6251,69.27,290.8508,-2.5891000000000003e-06,-3.29e-06,0.0,0 STARLINK-3890,1 52455U 22049E   22220.20185718 -.00000329  00000-0 -25891-5 0  9994,2 52455  53.2180 187.6251 0002014  69.2700 290.8508 15.08834642 14584,6917.897,95.438,541.155,538.369,0.0
52455.0,STARLINK-3890,PAYLOAD,2022-08-08 14:00:01,15.088624,0.0001974,53.2163,185.9123,67.4515,206.0333,-0.0017684,-0.0002833999999999,0.0,0 STARLINK-3890,1 52455U 22049E   22220.58335648 -.00028340  00000-0 -17684-2 0  9995,2 52455  53.2163 185.9123 0001974  67.4515 206.0333 15.08862400  1306,6917.812,95.436,541.0419999999998,538.311,0.0
52455.0,STARLINK-3890,PAYLOAD,2022-08-08 22:00:00,15.08863901,0.0001919,53.2165,184.4153,73.7088,211.3197,-0.00022225,-3.826e-05,0.0,0 STARLINK-3890,1 52455U 22049E   22220.91667824 -.00003826  00000-0 -22225-3 0  9996,2 52455  53.2165 184.4153 0001919  73.7088 211.3197 15.08863901 14699,6917.807,95.436,541.0,538.345,0.0
52455.0,STARLINK-3890,PAYLOAD,2022-08-09 14:00:01,15.08858595,0.0001827,53.2162,181.4232,68.3317,239.9051,-0.003221,-0.00051213,0.0,0 STARLINK-3890,1 52455U 22049E   22221.58334491 -.00051213  00000-0 -32210-2 0  9998,2 52455  53.2162 181.4232 0001827  68.3317 239.9051 15.08858595  1306,6917.824000000001,95.436,540.952,538.425,0.0
52455.0,STARLINK-3890,PAYLOAD,2022-08-09 22:00:00,15.08828812,0.0001766,53.2164,179.9263,73.8727,245.9599,-0.00017351,-3.048e-05,0.0,0 STARLINK-3890,1 52455U 22049E   22221.91667824 -.00003048  00000-0 -17351-3 0  9997,2 52455  53.2164 179.9263 0001766  73.8727 245.9599 15.08828812  1305,6917.915,95.438,541.001,538.558,0.0
52455.0,STARLINK-3890,PAYLOAD,2022-08-10 06:00:00,15.08810234,0.0001865,53.2163,178.4318,66.3789,265.0388,0.0016785,0.00026505,0.0,0 STARLINK-3890,1 52455U 22049E   22222.25001157  .00026505  00000-0  16785-2 0  9996,2 52455  53.2163 178.4318 0001865  66.3789 265.0388 15.08810234 14890,6917.971,95.439,541.127,538.5459999999998,0.0
52455.0,STARLINK-3890,PAYLOAD,2022-08-10 14:00:01,15.08837248,0.0001778,53.2161,176.9342,69.5989,273.387,-0.0013642,-0.00021932,0.0,0 STARLINK-3890,1 52455U 22049E   22222.58334491 -.00021932  00000-0 -13642-2 0  9992,2 52455  53.2161 176.9342 0001778  69.5989 273.3870 15.08837248  1302,6917.889,95.438,540.984,538.524,0.0
52455.0,STARLINK-3890,PAYLOAD,2022-08-10 22:00:00,15.08840057,0.0001793,53.2164,175.4376,74.7609,279.8034,0.00015057,2.109e-05,0.0,0 STARLINK-3890,1 52455U 22049E   22222.91667824  .00002109  00000-0  15057-3 0  9994,2 52455  53.2164 175.4376 0001793  74.7609 279.8034 15.08840057  1305,6917.88,95.438,540.986,538.505,0.0
52455.0,STARLINK-3890,PAYLOAD,2022-08-11 14:00:01,15.08850549,0.0001805,53.2164,172.4452,70.8606,306.8917,-0.0011145999999999,-0.00017988,0.0,0 STARLINK-3890,1 52455U 22049E   22223.58334491 -.00017988  00000-0 -11146-2 0  9996,2 52455  53.2164 172.4452 0001805  70.8606 306.8917 15.08850549  1303,6917.848000000001,95.437,540.962,538.464,0.0
52455.0,STARLINK-3890,PAYLOAD,2022-08-11 22:00:00,15.08859016,0.000179,53.2166,170.9488,74.2576,315.091,-0.0027239,-0.00043401,0.0,0 STARLINK-3890,1 52455U 22049E   22223.91667824 -.00043401  00000-0 -27239-2 0  9991,2 52455  53.2166 170.9488 0001790  74.2576 315.0910 15.08859016 15144,6917.821999999999,95.436,540.9259999999998,538.4490000000002,0.0
52455.0,STARLINK-3890,PAYLOAD,2022-08-12 14:00:01,15.0884335,0.000175,53.2169,167.9562,70.5417,342.0046,-0.0001303,-2.361e-05,0.0,0 STARLINK-3890,1 52455U 22049E   22224.58334491 -.00002361  00000-0 -13030-3 0  9991,2 52455  53.2169 167.9562 0001750  70.5417 342.0046 15.08843350 15240,6917.87,95.437,540.946,538.525,0.0
52455.0,STARLINK-3890,PAYLOAD,2022-08-12 22:00:01,15.08872286,0.0001771999999999,53.2171,166.4599,72.815,351.3842,-0.0023550999999999,-0.00037608,0.0,0 STARLINK-3890,1 52455U 22049E   22224.91668981 -.00037608  00000-0 -23551-2 0  9992,2 52455  53.2171 166.4599 0001772  72.8150 351.3842 15.08872286  1309,6917.781999999997,95.436,540.873,538.4209999999998,0.0
52455.0,STARLINK-3890,PAYLOAD,2022-08-13 14:00:01,15.08818313,0.0001610999999999,53.2176,163.4672,68.6288,18.715,-0.0012619999999999,-0.00020305,0.0,0 STARLINK-3890,1 52455U 22049E   22225.58334491 -.00020305  00000-0 -12620-2 0  9993,2 52455  53.2176 163.4672 0001611  68.6288  18.7150 15.08818313  1307,6917.946999999999,95.439,540.9259999999998,538.697,0.0
52455.0,STARLINK-3890,PAYLOAD,2022-08-13 22:00:00,15.08826126,0.0001654,53.2177,161.9711,70.5263,28.3724,-0.00082221,-0.00013345,0.0,0 STARLINK-3890,1 52455U 22049E   22225.91667824 -.00013345  00000-0 -82221-3 0  9990,2 52455  53.2177 161.9711 0001654  70.5263  28.3724 15.08826126  1302,6917.9230000000025,95.438,540.932,538.644,0.0
52455.0,STARLINK-3890,PAYLOAD,2022-08-14 14:00:01,15.08824842,0.0001624,53.2179,158.9785,69.3054,52.7502,0.00090942,0.00014209,0.0,0 STARLINK-3890,1 52455U 22049E   22226.58334491  .00014209  00000-0  90942-3 0  9992,2 52455  53.2179 158.9785 0001624  69.3054  52.7502 15.08824842  1300,6917.927,95.439,540.915,538.668,0.0
